{"type": "FeatureCollection", "features": [{"type": "Feature", "properties": {"district": "Djerem", "district_gadm": "Djerem", "region": "Adamaoua", "hasSeedData": false}, "geometry": {"type": "MultiPolygon", "coordinates": [[[[12.8787, 6.0004], [12.5057, 6.0011], [12.4586, 6.0874], [12.2951, 6.198], [12.2045, 6.1851], [12.1844, 6.1534], [12.0939, 6.1542], [11.9931, 6.2129], [12.0085, 6.302], [12.0795, 6.3251], [12.0612, 6.3963], [12.1636, 6.5122], [12.0124, 6.6753], [12.0857, 6.7465], [12.0621, 6.7934], [12.1565, 6.8311], [12.1426, 6.9114], [12.1935, 6.9823], [12.3396, 6.8757], [12.4411, 6.8852], [12.502, 6.9977], [12.5479, 6.9892], [12.5434, 7.0588], [12.6019, 7.043], [12.6163, 6.9835], [12.6419, 7.03], [12.7766, 6.9937], [12.8116, 7.037], [12.8766, 6.9719], [12.9127, 6.8708], [12.876, 6.7706], [12.9169, 6.7655], [12.9962, 6.8409], [13.0482, 6.8418], [13.0591, 6.8131], [13.1831, 6.7693], [13.2487, 6.7864], [13.3442, 6.7434], [13.3745, 6.6448], [13.419, 6.6142], [13.2808, 6.453], [13.3359, 6.3583], [13.3529, 6.2094], [13.3313, 6.1562], [13.3941, 6.0818], [13.3594, 6.0006], [12.8787, 6.0004]]]]}}, {"type": "Feature", "properties": {"district": "FaroetDéo", "district_gadm": "FaroetDéo", "region": "Adamaoua", "hasSeedData": false}, "geometry": {"type": "MultiPolygon", "coordinates": [[[[12.6727, 7.0113], [12.6419, 7.03], [12.6163, 6.9835], [12.6019, 7.043], [12.5434, 7.0588], [12.5479, 6.9892], [12.502, 6.9977], [12.4411, 6.8852], [12.3307, 6.8755], [12.2037, 6.9786], [12.1791, 7.1506], [12.1195, 7.2449], [11.811, 7.2296], [11.9358, 7.3798], [11.974, 7.4873], [12.0343, 7.5211], [12.0078, 7.6619], [12.0885, 7.8364], [12.2071, 7.9724], [12.2113, 8.1066], [12.2564, 8.1758], [12.2914, 8.1876], [12.2877, 8.1137], [12.4861, 7.9244], [12.6268, 7.9315], [12.6529, 7.8671], [12.6368, 7.7505], [12.7313, 7.7315], [12.7401, 7.6955], [12.7998, 7.6675], [13.1406, 7.5946], [13.2446, 7.6065], [13.246, 7.572], [13.1818, 7.5712], [13.1327, 7.4977], [13.1182, 7.4023], [13.0017, 7.3396], [12.9858, 7.2928], [13.0096, 7.26], [12.9324, 7.2555], [12.824, 7.1355], [12.8401, 7.0514], [12.8911, 7.0061], [12.8766, 6.9719], [12.8116, 7.037], [12.7766, 6.9937], [12.6727, 7.0113]]]]}}, {"type": "Feature", "properties": {"district": "MayoBanyo", "district_gadm": "MayoBanyo", "region": "Adamaoua", "hasSeedData": false}, "geometry": {"type": "MultiPolygon", "coordinates": [[[[11.888, 6.2068], [11.7065, 6.1396], [11.6647, 6.0741], [11.264, 5.9724], [11.308, 6.0397], [11.2625, 6.1369], [11.3037, 6.2423], [11.1824, 6.2682], [11.2093, 6.3468], [11.1917, 6.5386], [11.2802, 6.5386], [11.3509, 6.5], [11.3565, 6.5257], [11.426, 6.5319], [11.4189, 6.5972], [11.4966, 6.6007], [11.556, 6.6677], [11.5973, 6.8018], [11.5534, 6.8592], [11.6066, 6.9112], [11.6192, 6.9761], [11.7171, 7.0316], [11.7099, 7.0553], [11.8711, 7.0794], [11.8358, 7.1766], [11.8533, 7.2266], [11.9589, 7.2506], [12.0242, 7.2305], [12.0525, 7.2578], [12.1443, 7.2172], [12.2082, 7.0193], [12.1958, 6.9577], [12.1484, 6.9331], [12.1565, 6.8311], [12.0621, 6.7934], [12.0857, 6.7465], [12.039, 6.7255], [12.0112, 6.6653], [12.1634, 6.5104], [12.0612, 6.3963], [12.0795, 6.3251], [11.888, 6.2068]]]]}}, {"type": "Feature", "properties": {"district": "Mbéré", "district_gadm": "Mbéré", "region": "Adamaoua", "hasSeedData": false}, "geometry": {"type": "MultiPolygon", "coordinates": [[[[13.3596, 6.0017], [13.3941, 6.0818], [13.3313, 6.1562], [13.3529, 6.2094], [13.3359, 6.3583], [13.2808, 6.453], [13.419, 6.6142], [13.4056, 6.6443], [13.4691, 6.5934], [13.5245, 6.6267], [13.5423, 6.5743], [13.5965, 6.5886], [13.6056, 6.5479], [13.7583, 6.5171], [13.8992, 6.642], [13.913, 6.6767], [13.8475, 6.7709], [13.8727, 6.795], [13.9124, 6.8073], [13.9557, 6.7414], [14.0011, 6.7315], [14.1723, 6.8732], [14.277, 6.8321], [14.3214, 6.8545], [14.3351, 6.8281], [14.3946, 6.8295], [14.4012, 6.8004], [14.5375, 6.8684], [14.5826, 6.8435], [14.6402, 6.9108], [14.6234, 6.9382], [14.6773, 6.9546], [14.5635, 7.0567], [14.5878, 7.0747], [14.6461, 7.0648], [14.6519, 7.0162], [14.7256, 7.0236], [15.0548, 7.1877], [15.1032, 7.1436], [15.2339, 7.2164], [15.2085, 7.1765], [15.2235, 7.1267], [15.1445, 7.0271], [15.139, 6.9435], [15.0607, 6.7784], [14.9616, 6.7499], [14.8014, 6.4011], [14.8128, 6.3641], [14.7398, 6.2509], [14.563, 6.1911], [14.4232, 6.0793], [14.4177, 6.0418], [14.3865, 6.0595], [14.4046, 6.0144], [13.3596, 6.0017]]]]}}, {"type": "Feature", "properties": {"district": "Vina", "district_gadm": "Vina", "region": "Adamaoua", "hasSeedData": true, "district_alt": "Ngaoundéré"}, "geometry": {"type": "MultiPolygon", "coordinates": [[[[14.1527, 6.8563], [14.0011, 6.7315], [13.9557, 6.7414], [13.9101, 6.8082], [13.8525, 6.7826], [13.9128, 6.6758], [13.851, 6.6219], [13.8559, 6.5906], [13.7478, 6.5152], [13.6056, 6.5479], [13.5965, 6.5886], [13.5423, 6.5743], [13.5245, 6.6267], [13.4691, 6.5934], [13.4364, 6.644], [13.3778, 6.6414], [13.3437, 6.7441], [13.251, 6.7858], [13.1831, 6.7693], [12.9999, 6.8412], [12.9177, 6.7659], [12.876, 6.7706], [12.9127, 6.8708], [12.8765, 6.9603], [12.8911, 7.0061], [12.8401, 7.0514], [12.824, 7.1355], [12.9324, 7.2555], [13.0053, 7.2552], [12.9858, 7.2928], [13.0225, 7.3698], [13.1188, 7.4029], [13.1327, 7.4977], [13.1818, 7.5712], [13.246, 7.572], [13.2944, 7.8183], [13.3416, 7.8595], [13.3258, 7.9012], [13.3561, 7.9342], [13.3275, 7.9736], [13.4127, 7.9606], [13.4408, 7.909], [13.573, 7.9063], [13.6995, 7.9576], [13.7443, 7.9121], [13.7342, 7.8599], [13.7869, 7.7581], [13.8836, 7.7045], [13.8742, 7.6169], [14.0062, 7.5504], [14.1256, 7.567], [14.1448, 7.4837], [14.2137, 7.457], [14.2459, 7.3527], [14.3416, 7.3043], [14.362, 7.2137], [14.3219, 7.1643], [14.5202, 7.1615], [14.5635, 7.0567], [14.6732, 6.9632], [14.6234, 6.9382], [14.6423, 6.9189], [14.6076, 6.8552], [14.569, 6.841], [14.5375, 6.8684], [14.4012, 6.8004], [14.3946, 6.8295], [14.3351, 6.8281], [14.3214, 6.8545], [14.277, 6.8321], [14.2283, 6.8663], [14.1527, 6.8563]]]]}}, {"type": "Feature", "properties": {"district": "HauteSanaga", "district_gadm": "HauteSanaga", "region": "Centre", "hasSeedData": false}, "geometry": {"type": "MultiPolygon", "coordinates": [[[[12.4519, 4.324], [12.2713, 4.1408], [12.1169, 4.0595], [12.1021, 4.115], [12.1644, 4.1819], [12.1139, 4.2118], [11.9931, 4.2075], [11.9454, 4.2841], [11.8701, 4.253], [11.7662, 4.3276], [11.7317, 4.3046], [11.7209, 4.4448], [11.8118, 4.52], [11.8533, 4.646], [11.9465, 4.6288], [11.9354, 4.6549], [11.983, 4.6612], [11.9616, 4.6852], [12.003, 4.7322], [11.9816, 4.7402], [11.999, 4.8566], [12.0905, 4.8456], [12.2811, 4.9144], [12.3566, 5.0641], [12.429, 5.0823], [12.5432, 5.219], [12.8092, 5.2798], [13.0573, 5.0753], [13.0144, 4.9581], [13.1896, 4.9142], [13.2469, 4.7807], [13.2122, 4.5499], [13.1292, 4.5457], [13.0066, 4.6047], [12.8772, 4.5179], [12.8428, 4.3747], [12.7598, 4.3298], [12.6142, 4.3907], [12.4519, 4.324]]]]}}, {"type": "Feature", "properties": {"district": "Lekié", "district_gadm": "Lekié", "region": "Centre", "hasSeedData": false}, "geometry": {"type": "MultiPolygon", "coordinates": [[[[11.3408, 3.8672], [11.2822, 3.8642], [11.2018, 3.7956], [11.1612, 3.8024], [11.1702, 3.9122], [11.2113, 3.965], [11.1453, 4.0485], [11.1127, 4.0282], [11.1443, 4.101], [11.0734, 4.1874], [11.2133, 4.2875], [11.3579, 4.4779], [11.438, 4.4996], [11.5558, 4.3729], [11.6403, 4.3466], [11.7265, 4.3693], [11.7317, 4.3046], [11.6062, 4.174], [11.6264, 4.1505], [11.573, 4.1119], [11.5737, 4.0212], [11.5326, 4.0193], [11.4536, 3.8988], [11.3408, 3.8672]]]]}}, {"type": "Feature", "properties": {"district": "Mbam", "district_gadm": "MbametInoubou", "region": "Centre", "hasSeedData": true}, "geometry": {"type": "MultiPolygon", "coordinates": [[[[11.2493, 4.355], [11.2089, 4.2832], [11.0761, 4.1917], [11.0774, 4.2282], [10.8941, 4.4695], [10.9203, 4.6064], [10.8771, 4.5809], [10.7846, 4.6083], [10.7764, 4.4974], [10.697, 4.5217], [10.6936, 4.4861], [10.6394, 4.4607], [10.4783, 4.4473], [10.4532, 4.4888], [10.3949, 4.4763], [10.386, 4.5475], [10.4938, 4.7144], [10.4651, 4.7441], [10.3752, 4.7067], [10.3571, 4.6663], [10.3379, 4.6913], [10.3607, 4.7647], [10.4172, 4.7882], [10.4926, 4.8841], [10.5984, 4.8823], [10.7212, 4.9537], [10.7655, 5.0159], [10.9416, 4.9248], [10.9621, 4.9706], [10.9314, 5.0017], [10.9699, 5.0367], [10.998, 5.1585], [11.2133, 5.2388], [11.382, 5.022], [11.3807, 4.9778], [11.3464, 4.9885], [11.3387, 4.8513], [11.277, 4.7681], [11.2869, 4.7229], [11.3329, 4.7045], [11.3094, 4.6794], [11.3466, 4.5875], [11.2851, 4.5521], [11.3218, 4.4744], [11.2493, 4.355]]]]}}, {"type": "Feature", "properties": {"district": "MbametKim", "district_gadm": "MbametKim", "region": "Centre", "hasSeedData": false}, "geometry": {"type": "MultiPolygon", "coordinates": [[[[11.4788, 4.4696], [11.438, 4.4996], [11.3808, 4.4918], [11.2777, 4.3897], [11.3218, 4.4744], [11.2851, 4.5521], [11.3466, 4.5875], [11.3094, 4.6794], [11.3329, 4.7045], [11.2869, 4.7229], [11.277, 4.7681], [11.3387, 4.8513], [11.3464, 4.9885], [11.3807, 4.9778], [11.382, 5.022], [11.2133, 5.2388], [11.0801, 5.1882], [11.0665, 5.2175], [11.0723, 5.2988], [11.1943, 5.4138], [11.1706, 5.4522], [11.2152, 5.5272], [11.1866, 5.604], [11.202, 5.6703], [11.3169, 5.7863], [11.2727, 5.8097], [11.262, 5.9719], [11.6647, 6.0741], [11.7065, 6.1396], [11.9926, 6.2613], [11.9931, 6.2129], [12.0939, 6.1542], [12.1844, 6.1534], [12.2045, 6.1851], [12.2951, 6.198], [12.4586, 6.0874], [12.5027, 6.0019], [12.8879, 6.0004], [12.8719, 5.9019], [13.0768, 5.5324], [12.961, 5.3263], [12.5432, 5.219], [12.429, 5.0823], [12.3566, 5.0641], [12.2833, 4.9157], [12.0905, 4.8456], [11.999, 4.8566], [11.9816, 4.7402], [12.003, 4.7322], [11.9616, 4.6852], [11.983, 4.6612], [11.9354, 4.6549], [11.9465, 4.6288], [11.8533, 4.646], [11.8118, 4.52], [11.7226, 4.4475], [11.723, 4.4007], [11.6749, 4.3503], [11.5558, 4.3729], [11.4788, 4.4696]]]]}}, {"type": "Feature", "properties": {"district": "MefouetAfamba", "district_gadm": "MefouetAfamba", "region": "Centre", "hasSeedData": false}, "geometry": {"type": "MultiPolygon", "coordinates": [[[[11.7165, 3.7243], [11.6903, 3.6874], [11.7626, 3.642], [11.662, 3.5415], [11.5998, 3.5519], [11.5639, 3.62], [11.5007, 3.632], [11.5705, 3.8347], [11.5512, 3.9316], [11.5658, 4.0614], [11.5913, 4.0717], [11.573, 4.1119], [11.6073, 4.1205], [11.6062, 4.174], [11.674, 4.2186], [11.6886, 4.2743], [11.7662, 4.3276], [11.8701, 4.253], [11.949, 4.2822], [11.9931, 4.2075], [12.1139, 4.2118], [12.1644, 4.1819], [12.1021, 4.115], [12.1052, 3.9938], [12.0073, 3.9347], [12.0281, 3.8372], [11.9443, 3.7757], [11.8833, 3.8295], [11.8287, 3.8214], [11.7429, 3.7772], [11.7165, 3.7243]]]]}}, {"type": "Feature", "properties": {"district": "MefouetAkono", "district_gadm": "MefouetAkono", "region": "Centre", "hasSeedData": false}, "geometry": {"type": "MultiPolygon", "coordinates": [[[[11.3308, 3.4231], [11.1914, 3.4482], [11.2578, 3.5323], [11.2157, 3.8165], [11.2822, 3.8642], [11.4159, 3.8803], [11.4749, 3.7946], [11.4398, 3.7403], [11.5272, 3.7511], [11.5267, 3.6801], [11.4993, 3.5965], [11.4579, 3.5843], [11.4642, 3.4708], [11.4302, 3.4264], [11.4574, 3.429], [11.4556, 3.3735], [11.3663, 3.3468], [11.3308, 3.4231]]]]}}, {"type": "Feature", "properties": {"district": "Mfoundi", "district_gadm": "Mfoundi", "region": "Centre", "hasSeedData": true}, "geometry": {"type": "MultiPolygon", "coordinates": [[[[11.4874, 3.7444], [11.4398, 3.7403], [11.4749, 3.7946], [11.4159, 3.8803], [11.5326, 4.0193], [11.5734, 4.0211], [11.5512, 3.9316], [11.5705, 3.8347], [11.5272, 3.7511], [11.4874, 3.7444]]]]}}, {"type": "Feature", "properties": {"district": "NyongetKéllé", "district_gadm": "NyongetKéllé", "region": "Centre", "hasSeedData": false}, "geometry": {"type": "MultiPolygon", "coordinates": [[[[10.8473, 3.3985], [10.8153, 3.4586], [10.7624, 3.4734], [10.2968, 3.3311], [10.2306, 3.5099], [10.3233, 3.5642], [10.3768, 3.7868], [10.406, 3.8098], [10.4883, 3.8161], [10.6057, 3.7268], [10.6663, 3.836], [10.645, 3.9678], [10.6919, 3.989], [10.6924, 4.0684], [10.7249, 4.0549], [11.0734, 4.1874], [11.1443, 4.101], [11.1127, 4.0282], [11.1453, 4.0485], [11.2113, 3.965], [11.1545, 3.8404], [11.1636, 3.8007], [11.2167, 3.8066], [11.2479, 3.7299], [11.2522, 3.5052], [11.1054, 3.3997], [10.8473, 3.3985]]]]}}, {"type": "Feature", "properties": {"district": "NyongetMfoumou", "district_gadm": "NyongetMfoumou", "region": "Centre", "hasSeedData": false}, "geometry": {"type": "MultiPolygon", "coordinates": [[[[12.2616, 3.4838], [12.2153, 3.3206], [12.1608, 3.3254], [12.1397, 3.2914], [12.1337, 3.3615], [11.994, 3.4067], [11.8724, 3.5009], [11.7923, 3.4861], [11.7953, 3.5454], [11.8135, 3.5185], [11.8467, 3.5648], [11.9202, 3.5332], [11.9506, 3.6401], [12.0101, 3.6722], [11.9443, 3.7757], [12.0295, 3.8392], [12.0073, 3.9347], [12.1052, 3.9938], [12.1169, 4.0595], [12.1687, 4.1041], [12.3401, 4.1966], [12.4857, 4.3582], [12.6142, 4.3907], [12.7831, 4.3424], [12.7931, 4.1737], [12.7494, 4.1125], [12.7996, 4.0366], [12.7265, 4.0104], [12.6547, 3.9346], [12.4932, 3.886], [12.5016, 3.83], [12.6181, 3.7101], [12.5636, 3.5334], [12.5008, 3.6807], [12.4573, 3.6774], [12.4328, 3.6109], [12.2616, 3.4838]]]]}}, {"type": "Feature", "properties": {"district": "NyongetSo'o", "district_gadm": "NyongetSo'o", "region": "Centre", "hasSeedData": false}, "geometry": {"type": "MultiPolygon", "coordinates": [[[[11.7804, 3.3308], [11.7746, 3.3099], [11.7346, 3.3347], [11.7457, 3.2875], [11.7098, 3.277], [11.6991, 3.1986], [11.5649, 3.1375], [11.3551, 3.1435], [11.3315, 3.1133], [11.2705, 3.1355], [11.2188, 3.1045], [11.1735, 3.1541], [11.1712, 3.2166], [11.1116, 3.2517], [11.061, 3.3951], [11.1891, 3.4651], [11.3303, 3.4236], [11.3663, 3.3468], [11.4556, 3.3735], [11.4574, 3.429], [11.4302, 3.4264], [11.4642, 3.4708], [11.4626, 3.5939], [11.5567, 3.6245], [11.5998, 3.5519], [11.662, 3.5415], [11.7626, 3.642], [11.6903, 3.6874], [11.7429, 3.7772], [11.8833, 3.8295], [12.011, 3.6739], [11.9506, 3.6401], [11.9186, 3.5322], [11.8626, 3.5698], [11.8145, 3.5185], [11.7953, 3.5454], [11.7923, 3.4861], [11.8936, 3.491], [11.8503, 3.3652], [11.7804, 3.3308]]]]}}, {"type": "Feature", "properties": {"district": "BoumbaetNgoko", "district_gadm": "BoumbaetNgoko", "region": "Est", "hasSeedData": false}, "geometry": {"type": "MultiPolygon", "coordinates": [[[[16.0743, 2.5517], [16.0723, 2.4625], [16.191, 2.2199], [16.1457, 2.1766], [16.0837, 2.1936], [16.0894, 2.093], [16.0634, 2.0692], [16.0836, 2.0457], [16.0508, 1.9746], [16.1114, 1.8885], [16.1491, 1.6942], [16.086, 1.6895], [16.0601, 1.6523], [16.0205, 1.6745], [16.0271, 1.7663], [15.8835, 1.7873], [15.8679, 1.8317], [15.748, 1.9195], [15.4862, 1.9826], [15.3462, 1.9118], [15.2423, 2.0313], [15.1773, 2.0147], [15.1527, 2.0406], [15.1109, 1.9817], [15.0693, 2.0008], [15.0484, 1.977], [14.9835, 2.0353], [14.9539, 2.0037], [14.8951, 2.016], [14.9158, 2.0535], [14.8748, 2.1108], [14.8091, 2.0598], [14.7702, 2.0636], [14.7709, 2.0968], [14.7412, 2.0894], [14.7245, 2.1264], [14.721, 2.1057], [14.6481, 2.1315], [14.5954, 2.2036], [14.5985, 2.7588], [14.3787, 2.7938], [14.3255, 2.859], [14.3798, 2.9345], [14.4399, 2.9493], [14.3756, 3.0199], [14.3755, 3.0599], [14.5184, 3.3959], [14.4186, 3.7381], [14.8144, 3.7614], [14.904, 3.8914], [14.9927, 3.9147], [15.0763, 4.0217], [15.2489, 3.7107], [15.8, 3.1008], [15.8834, 3.1012], [15.9582, 3.0009], [16.0321, 2.984], [16.093, 2.8298], [16.0503, 2.7859], [16.0582, 2.7129], [16.0868, 2.7015], [16.0743, 2.5517]]]]}}, {"type": "Feature", "properties": {"district": "HautNyong", "district_gadm": "HautNyong", "region": "Est", "hasSeedData": false}, "geometry": {"type": "MultiPolygon", "coordinates": [[[[14.597, 2.4862], [14.5954, 2.2035], [14.4628, 2.1261], [14.4122, 2.1813], [14.3629, 2.1877], [14.3039, 2.1626], [13.6801, 2.1717], [13.6305, 2.9045], [13.5581, 2.8439], [13.5326, 2.8535], [13.5338, 2.8216], [13.504, 2.8349], [13.5014, 2.7872], [13.4317, 2.7717], [13.2855, 2.8456], [13.2918, 2.787], [13.2675, 2.7823], [13.2106, 2.8647], [13.1618, 2.8451], [13.1345, 2.8724], [13.0813, 2.8376], [13.0021, 2.8493], [12.9868, 2.8865], [12.9397, 2.8628], [12.7948, 2.9043], [12.7647, 2.9732], [12.7652, 3.1703], [12.5425, 3.3928], [12.6181, 3.7101], [12.5016, 3.83], [12.4932, 3.886], [12.6547, 3.9346], [12.7265, 4.0104], [12.7996, 4.0366], [12.8027, 4.0674], [12.7504, 4.1013], [12.7838, 4.1324], [12.8044, 4.2584], [12.7704, 4.2997], [12.7831, 4.3424], [12.8428, 4.3747], [12.8772, 4.5179], [13.0238, 4.6065], [13.1292, 4.5457], [13.4563, 4.5323], [13.5851, 4.4764], [13.7533, 4.3367], [13.5082, 4.0432], [13.5452, 3.99], [13.5165, 3.9384], [13.676, 3.8806], [13.7606, 3.8863], [13.9078, 3.8005], [13.9393, 3.7201], [14.003, 3.6667], [14.4186, 3.7381], [14.5184, 3.3959], [14.3755, 3.0599], [14.3756, 3.0199], [14.4399, 2.9493], [14.3798, 2.9345], [14.3255, 2.859], [14.3787, 2.7938], [14.5985, 2.7588], [14.597, 2.4862]]]]}}, {"type": "Feature", "properties": {"district": "Kadey", "district_gadm": "Kadey", "region": "Est", "hasSeedData": true}, "geometry": {"type": "MultiPolygon", "coordinates": [[[[14.8615, 3.824], [14.8144, 3.7614], [14.4107, 3.7372], [14.003, 3.6667], [13.9393, 3.7201], [13.9078, 3.8005], [13.7606, 3.8863], [13.676, 3.8806], [13.5143, 3.9413], [13.5452, 3.99], [13.5082, 4.0432], [13.7533, 4.3367], [13.9968, 4.382], [13.9428, 4.4721], [13.9525, 4.6235], [14.0803, 4.6637], [14.1259, 4.6451], [14.1527, 4.691], [14.2343, 4.7006], [14.257, 4.8946], [14.3183, 4.8925], [14.3397, 4.9517], [14.4063, 4.9568], [14.5092, 5.069], [14.4569, 5.2435], [14.5251, 5.2834], [14.6642, 5.1976], [14.7304, 4.6133], [14.8893, 4.4707], [15.0152, 4.4222], [15.0941, 4.292], [15.1059, 4.136], [15.1848, 4.0583], [15.059, 4.0135], [15.0152, 3.933], [14.904, 3.8914], [14.8615, 3.824]]]]}}, {"type": "Feature", "properties": {"district": "Lom-et-Djérem", "district_gadm": "LometDjerem", "region": "Est", "hasSeedData": true}, "geometry": {"type": "MultiPolygon", "coordinates": [[[[13.7048, 4.3805], [13.4563, 4.5323], [13.2122, 4.5499], [13.2469, 4.7807], [13.1896, 4.9142], [13.0144, 4.9581], [13.0573, 5.0753], [12.8092, 5.2798], [12.8867, 5.3258], [12.9554, 5.3209], [13.0768, 5.5324], [13.0006, 5.7057], [12.9642, 5.716], [12.9518, 5.7947], [12.8853, 5.8705], [12.8776, 5.9816], [14.3799, 6.0], [14.3982, 6.0612], [14.4986, 5.9053], [14.5962, 5.9234], [14.6204, 5.8894], [14.6281, 5.7131], [14.5915, 5.5908], [14.6301, 5.5092], [14.5495, 5.3031], [14.4569, 5.2435], [14.5111, 5.0735], [14.4063, 4.9568], [14.3397, 4.9517], [14.3183, 4.8925], [14.257, 4.8946], [14.2327, 4.6992], [14.1527, 4.691], [14.1259, 4.6451], [14.0803, 4.6637], [13.9525, 4.6235], [13.9428, 4.4721], [13.9958, 4.3808], [13.7533, 4.3367], [13.7048, 4.3805]]]]}}, {"type": "Feature", "properties": {"district": "Diamaré", "district_gadm": "Diamaré", "region": "Extrême-Nord", "hasSeedData": true}, "geometry": {"type": "MultiPolygon", "coordinates": [[[[14.4585, 10.5491], [14.284, 10.4927], [14.2359, 10.3965], [14.0501, 10.3526], [14.0518, 10.1726], [14.0135, 10.1739], [13.9578, 10.2353], [13.9529, 10.29], [13.9874, 10.4534], [14.0941, 10.4931], [14.0909, 10.5686], [14.0565, 10.5764], [14.0679, 10.651], [14.0334, 10.675], [14.0626, 10.8002], [14.1284, 10.7843], [14.1636, 10.8372], [14.2102, 10.8427], [14.2665, 10.9246], [14.4204, 11.0093], [14.548, 11.1559], [14.7023, 11.0302], [14.803, 11.0303], [14.7899, 10.6576], [14.6912, 10.5827], [14.7373, 10.5252], [14.7016, 10.474], [14.5504, 10.4666], [14.5039, 10.4811], [14.4585, 10.5491]]]]}}, {"type": "Feature", "properties": {"district": "LogoneetChari", "district_gadm": "LogoneetChari", "region": "Extrême-Nord", "hasSeedData": false}, "geometry": {"type": "MultiPolygon", "coordinates": [[[[14.7682, 11.0462], [14.7023, 11.0302], [14.548, 11.1559], [14.5014, 11.1156], [14.4631, 11.2921], [14.4645, 11.4243], [14.6131, 11.5114], [14.6426, 11.576], [14.6398, 11.653], [14.5485, 11.723], [14.6126, 11.7806], [14.6028, 11.865], [14.6537, 11.957], [14.6197, 12.0403], [14.6531, 12.0623], [14.634, 12.0918], [14.676, 12.1662], [14.5487, 12.2353], [14.5597, 12.2593], [14.4872, 12.3515], [14.2205, 12.3624], [14.1706, 12.4104], [14.197, 12.5039], [14.0855, 13.0774], [14.4598, 13.0738], [14.5633, 12.9107], [14.5569, 12.7727], [14.7175, 12.719], [14.7146, 12.6549], [14.7473, 12.6854], [14.7727, 12.6319], [14.831, 12.6295], [14.8461, 12.4567], [14.877, 12.4604], [14.9096, 12.3762], [14.9118, 12.1821], [14.885, 12.1607], [14.9598, 12.0929], [15.0328, 12.1045], [15.0592, 12.0468], [15.0393, 12.024], [15.0893, 11.9936], [15.0521, 11.9697], [15.0402, 11.8999], [15.1247, 11.7864], [15.0817, 11.7599], [15.1065, 11.7243], [15.0645, 11.7095], [15.1028, 11.5804], [15.1468, 11.5543], [15.062, 11.4131], [15.0506, 11.343], [15.0759, 11.3225], [15.0501, 11.2797], [15.112, 11.0846], [15.035, 10.9959], [14.9059, 11.0862], [14.8075, 11.0303], [14.7682, 11.0462]]]]}}, {"type": "Feature", "properties": {"district": "MayoDanay", "district_gadm": "MayoDanay", "region": "Extrême-Nord", "hasSeedData": false}, "geometry": {"type": "MultiPolygon", "coordinates": [[[[15.4948, 10.1242], [15.671, 10.0136], [15.6895, 9.9964], [15.6526, 9.9852], [15.4133, 9.9349], [15.1525, 9.997], [15.0619, 9.9487], [14.9615, 9.9849], [14.8043, 9.9363], [14.9312, 10.1999], [14.8677, 10.3091], [14.9859, 10.4103], [14.7899, 10.6576], [14.803, 11.0303], [14.9059, 11.0862], [15.0628, 10.984], [15.0972, 10.877], [15.0698, 10.8134], [15.158, 10.6402], [15.1466, 10.5364], [15.2413, 10.4724], [15.3122, 10.307], [15.3562, 10.2927], [15.4948, 10.1242]]]]}}, {"type": "Feature", "properties": {"district": "Mayo-Kani", "district_gadm": "MayoKani", "region": "Extrême-Nord", "hasSeedData": true}, "geometry": {"type": "MultiPolygon", "coordinates": [[[[14.9132, 10.1787], [14.8024, 9.9357], [14.4661, 10.0066], [14.2075, 10.006], [14.2199, 10.0913], [14.0658, 10.1284], [14.0501, 10.3526], [14.2359, 10.3965], [14.284, 10.4927], [14.4392, 10.5583], [14.5039, 10.4811], [14.7016, 10.474], [14.7373, 10.5252], [14.6912, 10.5827], [14.7899, 10.6576], [14.9859, 10.4103], [14.8677, 10.3091], [14.9321, 10.2188], [14.9132, 10.1787]]]]}}, {"type": "Feature", "properties": {"district": "MayoSava", "district_gadm": "MayoSava", "region": "Extrême-Nord", "hasSeedData": false}, "geometry": {"type": "MultiPolygon", "coordinates": [[[[14.316, 10.9546], [14.1284, 10.7843], [14.0152, 10.8405], [14.0233, 10.9039], [13.9866, 10.9334], [13.9625, 11.0678], [13.8784, 11.1443], [13.9806, 11.3188], [14.169, 11.2456], [14.4645, 11.4243], [14.5014, 11.1156], [14.4219, 11.0106], [14.316, 10.9546]]]]}}, {"type": "Feature", "properties": {"district": "MayoTsanaga", "district_gadm": "MayoTsanaga", "region": "Extrême-Nord", "hasSeedData": false}, "geometry": {"type": "MultiPolygon", "coordinates": [[[[13.8463, 10.2398], [13.6786, 10.2572], [13.6478, 10.182], [13.6956, 10.1439], [13.5887, 10.1243], [13.5635, 10.0854], [13.4352, 10.0827], [13.4031, 10.1253], [13.4828, 10.1994], [13.4941, 10.391], [13.5362, 10.4237], [13.5275, 10.4791], [13.574, 10.5353], [13.5458, 10.6183], [13.6213, 10.719], [13.6519, 10.8206], [13.7139, 10.8599], [13.708, 10.972], [13.7347, 11.0114], [13.7925, 11.0097], [13.8784, 11.1443], [13.9625, 11.0678], [13.9866, 10.9334], [14.0233, 10.9039], [14.0152, 10.8405], [14.0728, 10.7804], [14.0334, 10.675], [14.0679, 10.651], [14.0565, 10.5764], [14.0909, 10.5686], [14.0941, 10.4931], [13.9874, 10.4534], [13.9529, 10.29], [13.9679, 10.2297], [13.8463, 10.2398]]]]}}, {"type": "Feature", "properties": {"district": "Moungo", "district_gadm": "Moungo", "region": "Littoral", "hasSeedData": true}, "geometry": {"type": "MultiPolygon", "coordinates": [[[[9.7666, 4.2318], [9.7544, 4.1508], [9.6794, 4.1197], [9.632, 4.1355], [9.5733, 4.0654], [9.5059, 4.0714], [9.5579, 4.1183], [9.53, 4.2104], [9.4668, 4.1898], [9.4137, 4.2235], [9.4558, 4.3483], [9.5149, 4.4024], [9.493, 4.5263], [9.5736, 4.6153], [9.6436, 4.6377], [9.7045, 4.8082], [9.7745, 4.8738], [9.7861, 4.9165], [9.7544, 4.941], [9.7757, 5.0055], [9.8662, 5.0295], [9.7364, 5.2455], [9.7409, 5.2751], [9.8296, 5.2908], [9.8427, 5.3348], [9.8475, 5.2568], [9.935, 5.2777], [9.9234, 5.2511], [9.9937, 5.2275], [10.0065, 5.0693], [10.0729, 5.0446], [10.1135, 4.9284], [10.0415, 4.8312], [10.0632, 4.7741], [10.034, 4.7415], [9.9843, 4.7353], [9.9488, 4.668], [9.9207, 4.6639], [9.895, 4.7083], [9.7592, 4.6113], [9.7625, 4.4528], [9.8018, 4.4446], [9.7666, 4.2318]]]]}}, {"type": "Feature", "properties": {"district": "Nkam", "district_gadm": "Nkam", "region": "Littoral", "hasSeedData": false}, "geometry": {"type": "MultiPolygon", "coordinates": [[[[9.7825, 4.2568], [9.8018, 4.4446], [9.7625, 4.4528], [9.7592, 4.6113], [9.895, 4.7083], [9.9207, 4.6639], [9.9488, 4.668], [9.9843, 4.7353], [10.0435, 4.7514], [10.0632, 4.7741], [10.0415, 4.8312], [10.107, 4.927], [10.15, 4.9199], [10.1479, 4.975], [10.2257, 5.0391], [10.1979, 5.0789], [10.2329, 5.1077], [10.2842, 5.0572], [10.3146, 5.1002], [10.367, 5.0866], [10.3676, 5.0178], [10.4181, 5.0067], [10.4204, 4.9189], [10.4443, 4.9606], [10.4337, 4.9103], [10.5245, 4.9032], [10.3607, 4.7647], [10.3379, 4.6913], [10.3571, 4.6663], [10.3752, 4.7067], [10.4651, 4.7441], [10.4938, 4.7144], [10.3788, 4.5023], [10.3949, 4.4763], [10.4697, 4.4827], [10.4783, 4.4473], [10.5998, 4.475], [10.6526, 4.4546], [10.5988, 4.4204], [10.5489, 4.4309], [10.528, 4.3664], [10.4388, 4.3487], [10.3583, 4.1966], [10.3673, 4.1497], [10.2766, 4.0897], [10.1284, 4.1285], [10.0725, 4.1115], [10.0694, 4.0812], [9.9094, 4.0924], [9.8461, 4.0674], [9.8269, 4.1139], [9.8629, 4.1556], [9.7628, 4.225], [9.7825, 4.2568]]]]}}, {"type": "Feature", "properties": {"district": "SanagaMaritime", "district_gadm": "SanagaMaritime", "region": "Littoral", "hasSeedData": false}, "geometry": {"type": "MultiPolygon", "coordinates": [[[[10.9817, 4.3302], [11.0774, 4.2282], [11.0734, 4.1874], [10.7249, 4.0549], [10.6924, 4.0684], [10.6919, 3.989], [10.645, 3.9678], [10.6663, 3.836], [10.6057, 3.7268], [10.4883, 3.8161], [10.3973, 3.8043], [10.3233, 3.5642], [10.2325, 3.5167], [10.204, 3.5916], [10.1176, 3.5805], [10.0391, 3.338], [9.9632, 3.2766], [9.903, 3.2631], [9.781, 3.4371], [9.64, 3.5429], [9.6889, 3.5628], [9.6329, 3.5562], [9.6568, 3.6327], [9.5525, 3.8142], [9.5923, 3.7971], [9.6221, 3.8676], [9.6613, 3.8362], [9.7159, 3.8578], [9.6781, 3.9289], [9.7745, 3.9632], [9.8515, 3.9478], [9.8635, 3.9894], [9.821, 4.0476], [9.8461, 4.0674], [9.9094, 4.0924], [10.0694, 4.0812], [10.1073, 4.1269], [10.3246, 4.1042], [10.4388, 4.3487], [10.528, 4.3664], [10.5347, 4.4221], [10.6144, 4.4282], [10.6936, 4.4861], [10.697, 4.5217], [10.7764, 4.4974], [10.795, 4.6111], [10.8771, 4.5809], [10.9203, 4.6064], [10.8941, 4.4695], [10.9817, 4.3302]]], [[[9.86386862745098, 3.9779], [9.8637, 3.9779], [9.8637, 3.978], [9.863870506912443, 3.977914746543779], [9.86386862745098, 3.9779]]]]}}, {"type": "Feature", "properties": {"district": "Wouri", "district_gadm": "Wouri", "region": "Littoral", "hasSeedData": true}, "geometry": {"type": "MultiPolygon", "coordinates": [[[[9.8285, 4.0411], [9.8642, 3.9848], [9.8409, 3.9417], [9.7786, 3.9635], [9.7136, 3.9305], [9.6349, 3.9395], [9.6306, 4.0072], [9.5236, 4.0278], [9.5247, 3.9633], [9.4463, 3.9875], [9.4398, 3.9245], [9.4708, 3.9046], [9.4065, 3.8831], [9.3358, 3.9154], [9.3812, 3.9206], [9.4584, 4.0607], [9.5858, 4.067], [9.632, 4.1355], [9.6794, 4.1197], [9.7544, 4.1508], [9.7657, 4.2258], [9.8629, 4.1556], [9.8276, 4.1166], [9.8285, 4.0411]]], [[[9.8639, 3.9779], [9.8639, 3.9779], [9.8637, 3.9779], [9.8637, 3.978], [9.8639, 3.9779]]]]}}, {"type": "Feature", "properties": {"district": "Bénoué", "district_gadm": "Bénoué", "region": "Nord", "hasSeedData": true}, "geometry": {"type": "MultiPolygon", "coordinates": [[[[13.7974, 8.981], [13.7821, 8.9627], [13.8414, 8.9064], [13.7925, 8.8191], [13.6634, 8.7442], [13.6911, 8.6604], [13.581, 8.4274], [13.4201, 8.3541], [13.3956, 8.4207], [13.439, 8.4211], [13.4836, 8.4824], [13.4784, 8.626], [13.2724, 8.6095], [13.1633, 8.7034], [13.0911, 8.7126], [13.0328, 8.7857], [12.9471, 8.7944], [12.892, 8.7242], [12.88, 8.7433], [12.8786, 8.9106], [12.9523, 9.0758], [12.9145, 9.1587], [12.9166, 9.3379], [12.8438, 9.3727], [13.0343, 9.5113], [13.2139, 9.5663], [13.2589, 9.7776], [13.2991, 9.8277], [13.2421, 9.864], [13.2368, 9.9197], [13.2878, 9.9802], [13.2476, 10.0005], [13.2522, 10.0422], [13.3795, 9.981], [13.5507, 9.9674], [13.6104, 9.8989], [13.5986, 9.8032], [13.7012, 9.5792], [13.7571, 9.5665], [13.9824, 9.6424], [14.0438, 9.614], [14.2913, 9.3594], [14.2171, 9.3076], [14.2292, 9.2619], [13.982, 9.2477], [13.961, 9.1633], [13.9051, 9.1105], [13.9166, 9.0792], [13.8414, 9.0665], [13.848, 9.0117], [13.7974, 8.981]]]]}}, {"type": "Feature", "properties": {"district": "Faro", "district_gadm": "Faro", "region": "Nord", "hasSeedData": true}, "geometry": {"type": "MultiPolygon", "coordinates": [[[[12.4438, 7.9606], [12.2859, 8.1161], [12.2914, 8.1876], [12.2564, 8.1758], [12.2388, 8.3391], [12.2604, 8.4374], [12.3356, 8.4305], [12.4657, 8.5244], [12.4322, 8.6213], [12.4858, 8.6435], [12.5753, 8.614], [12.6734, 8.6467], [12.7203, 8.7608], [12.7858, 8.7431], [12.8198, 8.8311], [12.804, 8.9165], [12.8979, 9.1148], [12.886, 9.1803], [12.9158, 9.2527], [12.9145, 9.1587], [12.9523, 9.074], [12.8786, 8.9106], [12.8906, 8.7254], [12.9471, 8.7944], [13.0328, 8.7857], [13.0911, 8.7126], [13.1633, 8.7034], [13.2724, 8.6095], [13.4784, 8.626], [13.4836, 8.4824], [13.439, 8.4211], [13.3956, 8.4207], [13.3968, 8.3404], [13.3332, 8.2716], [13.3226, 8.1803], [13.1661, 8.09], [13.0884, 8.1053], [13.0091, 8.1675], [13.0741, 8.0297], [13.1806, 7.9761], [13.3275, 7.9736], [13.3519, 7.9451], [13.3258, 7.9012], [13.3409, 7.8567], [13.2944, 7.8183], [13.2938, 7.7251], [13.2576, 7.6902], [13.2605, 7.6245], [13.1406, 7.5946], [12.7998, 7.6675], [12.7401, 7.6955], [12.7313, 7.7315], [12.6353, 7.7524], [12.6529, 7.8671], [12.6268, 7.9315], [12.4872, 7.924], [12.4438, 7.9606]]]]}}, {"type": "Feature", "properties": {"district": "MayoLouti", "district_gadm": "MayoLouti", "region": "Nord", "hasSeedData": false}, "geometry": {"type": "MultiPolygon", "coordinates": [[[[14.2298, 10.0752], [14.1351, 9.8239], [14.0263, 9.7316], [13.9824, 9.6424], [13.7558, 9.5663], [13.7349, 9.5919], [13.7012, 9.5792], [13.6409, 9.6689], [13.6419, 9.7433], [13.5978, 9.8071], [13.6104, 9.8989], [13.5507, 9.9674], [13.3766, 9.9819], [13.275, 10.0513], [13.3429, 10.1228], [13.4031, 10.1255], [13.4384, 10.0821], [13.5587, 10.0849], [13.5887, 10.1243], [13.6917, 10.1408], [13.6478, 10.182], [13.6934, 10.2611], [13.9739, 10.2299], [14.0135, 10.1739], [14.0518, 10.1726], [14.0762, 10.1113], [14.11, 10.1287], [14.2298, 10.0752]]]]}}, {"type": "Feature", "properties": {"district": "MayoRey", "district_gadm": "MayoRey", "region": "Nord", "hasSeedData": false}, "geometry": {"type": "MultiPolygon", "coordinates": [[[[15.2122, 7.2225], [15.1032, 7.1436], [15.0583, 7.1889], [14.8712, 7.0799], [14.6519, 7.0162], [14.6461, 7.0648], [14.5635, 7.0567], [14.5202, 7.1615], [14.3234, 7.1628], [14.362, 7.2137], [14.3409, 7.3053], [14.2459, 7.3527], [14.2137, 7.457], [14.1448, 7.4837], [14.1256, 7.567], [14.0062, 7.5504], [13.8742, 7.6169], [13.8836, 7.7045], [13.7869, 7.7581], [13.7342, 7.8599], [13.7443, 7.9121], [13.6995, 7.9576], [13.573, 7.9063], [13.4408, 7.909], [13.409, 7.9622], [13.1806, 7.9761], [13.0505, 8.047], [13.0091, 8.1675], [13.0884, 8.1053], [13.1661, 8.09], [13.3226, 8.1803], [13.3332, 8.2716], [13.4017, 8.357], [13.581, 8.4274], [13.6911, 8.6604], [13.662, 8.7417], [13.8237, 8.8655], [13.8394, 8.923], [13.7821, 8.9627], [13.848, 9.0117], [13.8414, 9.0665], [13.9166, 9.0792], [13.9051, 9.1105], [13.961, 9.1633], [13.982, 9.2477], [14.2292, 9.2619], [14.2186, 9.3098], [14.3114, 9.3687], [14.3846, 9.2736], [14.3485, 9.2068], [14.4678, 9.1169], [14.4971, 9.0537], [14.836, 8.8152], [14.9014, 8.8135], [14.9219, 8.7554], [14.9874, 8.7323], [14.982, 8.6895], [15.106, 8.6578], [15.1515, 8.6022], [15.3967, 8.0913], [15.4524, 7.8811], [15.5047, 7.7936], [15.5886, 7.7725], [15.569, 7.5906], [15.2122, 7.2225]]]]}}, {"type": "Feature", "properties": {"district": "Boyo", "district_gadm": "Boyo", "region": "Nord-Ouest", "hasSeedData": false}, "geometry": {"type": "MultiPolygon", "coordinates": [[[[10.472, 6.2747], [10.4281, 6.2353], [10.4457, 6.1688], [10.346, 6.1003], [10.31, 6.1528], [10.2249, 6.1473], [10.1872, 6.1808], [10.101, 6.1577], [10.0717, 6.2346], [10.1652, 6.3668], [10.2206, 6.3327], [10.2843, 6.3437], [10.3634, 6.5343], [10.3455, 6.6485], [10.454, 6.7135], [10.4569, 6.6662], [10.5114, 6.6412], [10.5153, 6.4812], [10.5688, 6.4592], [10.5381, 6.3735], [10.4918, 6.3465], [10.5141, 6.3017], [10.472, 6.2747]]]]}}, {"type": "Feature", "properties": {"district": "Bui", "district_gadm": "Bui", "region": "Nord-Ouest", "hasSeedData": false}, "geometry": {"type": "MultiPolygon", "coordinates": [[[[10.7426, 6.3954], [10.7749, 6.3513], [10.8537, 6.3482], [10.9502, 6.2649], [11.0098, 6.2778], [11.0505, 6.237], [10.9993, 6.2327], [10.9892, 6.0645], [10.9259, 6.0163], [10.8639, 6.0202], [10.8419, 5.9764], [10.7227, 6.0393], [10.6534, 5.9871], [10.5953, 6.0787], [10.5493, 6.0535], [10.5019, 6.123], [10.4306, 6.1063], [10.4537, 6.1949], [10.4281, 6.2353], [10.5141, 6.3017], [10.4918, 6.3465], [10.5381, 6.3735], [10.5679, 6.4602], [10.623, 6.4689], [10.6882, 6.3821], [10.7426, 6.3954]]]]}}, {"type": "Feature", "properties": {"district": "DongaMantung", "district_gadm": "DongaMantung", "region": "Nord-Ouest", "hasSeedData": false}, "geometry": {"type": "MultiPolygon", "coordinates": [[[[11.0524, 6.2269], [11.0179, 6.2748], [10.9522, 6.264], [10.8675, 6.3419], [10.7749, 6.3513], [10.7598, 6.393], [10.6882, 6.3821], [10.6011, 6.4795], [10.5701, 6.4601], [10.5153, 6.4812], [10.5114, 6.6412], [10.4569, 6.6662], [10.4104, 6.909], [10.4904, 6.8997], [10.541, 6.9386], [10.572, 7.1623], [10.6129, 7.0611], [10.8412, 6.9396], [10.8201, 6.8438], [10.913, 6.7656], [10.9192, 6.7085], [10.9943, 6.687], [11.0599, 6.7162], [11.0966, 6.6821], [11.0991, 6.5216], [11.1944, 6.5293], [11.1957, 6.2575], [11.0524, 6.2269]]]]}}, {"type": "Feature", "properties": {"district": "Menchum", "district_gadm": "Menchum", "region": "Nord-Ouest", "hasSeedData": false}, "geometry": {"type": "MultiPolygon", "coordinates": [[[[10.2791, 6.3393], [10.2174, 6.3335], [10.1734, 6.37], [10.0647, 6.2277], [10.0013, 6.3052], [9.8653, 6.2074], [9.8353, 6.2781], [9.7886, 6.2727], [9.7436, 6.4842], [9.7063, 6.502], [9.7794, 6.7945], [9.8639, 6.7765], [10.1534, 7.0385], [10.1795, 7.0117], [10.1741, 6.9382], [10.2171, 6.8888], [10.4104, 6.909], [10.4436, 6.8156], [10.454, 6.7135], [10.3455, 6.6485], [10.3634, 6.5343], [10.2791, 6.3393]]]]}}, {"type": "Feature", "properties": {"district": "Mezam", "district_gadm": "Mezam", "region": "Nord-Ouest", "hasSeedData": true}, "geometry": {"type": "MultiPolygon", "coordinates": [[[[10.2689, 5.8944], [10.3112, 5.8217], [10.2781, 5.7659], [10.3064, 5.7188], [10.2802, 5.7039], [10.1573, 5.7747], [10.0794, 5.7081], [9.9855, 5.7286], [9.9752, 5.816], [9.9357, 5.8507], [10.0847, 5.9642], [10.0315, 6.0297], [10.0432, 6.1008], [9.912, 6.2229], [9.9207, 6.2659], [10.0187, 6.3044], [10.099, 6.158], [10.1872, 6.1808], [10.2249, 6.1473], [10.3136, 6.1516], [10.3873, 5.9995], [10.37, 5.945], [10.2942, 5.9394], [10.2561, 5.9189], [10.2689, 5.8944]]]]}}, {"type": "Feature", "properties": {"district": "Momo", "district_gadm": "Momo", "region": "Nord-Ouest", "hasSeedData": true}, "geometry": {"type": "MultiPolygon", "coordinates": [[[[10.0254, 5.9298], [9.9768, 5.8975], [9.9799, 5.8613], [9.9357, 5.8507], [9.9752, 5.816], [9.9805, 5.739], [9.89, 5.7189], [9.7685, 5.7768], [9.7279, 5.8478], [9.6799, 5.8353], [9.6337, 5.8875], [9.5908, 5.8835], [9.6389, 5.9676], [9.6115, 6.0214], [9.7643, 6.1234], [9.7897, 6.1683], [9.7718, 6.1986], [9.8168, 6.2212], [9.8124, 6.2808], [9.8583, 6.21], [9.9408, 6.2211], [10.0432, 6.1008], [10.0315, 6.0297], [10.0844, 5.957], [10.0254, 5.9298]]]]}}, {"type": "Feature", "properties": {"district": "NgoKetunjia", "district_gadm": "NgoKetunjia", "region": "Nord-Ouest", "hasSeedData": false}, "geometry": {"type": "MultiPolygon", "coordinates": [[[[10.2658, 5.8976], [10.2942, 5.9394], [10.3713, 5.9465], [10.3888, 6.0172], [10.346, 6.1003], [10.4262, 6.1538], [10.4328, 6.1042], [10.5019, 6.123], [10.5493, 6.0535], [10.5953, 6.0787], [10.6614, 5.9855], [10.6168, 5.8774], [10.6289, 5.8325], [10.588, 5.7784], [10.5238, 5.8346], [10.3131, 5.8002], [10.2658, 5.8976]]]]}}, {"type": "Feature", "properties": {"district": "Bamboutos", "district_gadm": "Bamboutos", "region": "Ouest", "hasSeedData": false}, "geometry": {"type": "MultiPolygon", "coordinates": [[[[10.2303, 5.7381], [10.2802, 5.7039], [10.3064, 5.7188], [10.2783, 5.768], [10.3244, 5.8091], [10.4366, 5.8022], [10.5238, 5.8346], [10.5673, 5.8071], [10.5558, 5.7042], [10.505, 5.7051], [10.4592, 5.64], [10.5263, 5.576], [10.3576, 5.5988], [10.307, 5.5113], [10.193, 5.5028], [10.1332, 5.5388], [10.0838, 5.6343], [10.0794, 5.7081], [10.1136, 5.7507], [10.1592, 5.7739], [10.2303, 5.7381]]]]}}, {"type": "Feature", "properties": {"district": "HautNkam", "district_gadm": "HautNkam", "region": "Ouest", "hasSeedData": false}, "geometry": {"type": "MultiPolygon", "coordinates": [[[[10.1109, 4.9347], [10.0729, 5.0446], [10.0065, 5.0693], [10.0014, 5.1682], [10.2467, 5.3749], [10.2441, 5.2773], [10.3323, 5.2149], [10.322, 5.1624], [10.3778, 5.1104], [10.372, 5.079], [10.3146, 5.1002], [10.2842, 5.0572], [10.2329, 5.1077], [10.1979, 5.0789], [10.2257, 5.0391], [10.1479, 4.975], [10.15, 4.9199], [10.1109, 4.9347]]]]}}, {"type": "Feature", "properties": {"district": "HautsPlateaux", "district_gadm": "HautsPlateaux", "region": "Ouest", "hasSeedData": false}, "geometry": {"type": "MultiPolygon", "coordinates": [[[[10.347, 5.1471], [10.322, 5.1624], [10.3323, 5.2149], [10.2426, 5.2815], [10.2536, 5.3929], [10.3038, 5.3999], [10.3575, 5.4603], [10.3658, 5.3775], [10.4427, 5.3256], [10.4067, 5.2636], [10.4457, 5.2024], [10.347, 5.1471]]]]}}, {"type": "Feature", "properties": {"district": "KoungKhi", "district_gadm": "KoungKhi", "region": "Ouest", "hasSeedData": false}, "geometry": {"type": "MultiPolygon", "coordinates": [[[[10.4067, 5.2636], [10.4427, 5.3256], [10.3863, 5.3458], [10.3628, 5.419], [10.4014, 5.4499], [10.4499, 5.4274], [10.5175, 5.4461], [10.4999, 5.3869], [10.5613, 5.363], [10.5609, 5.2899], [10.5892, 5.2694], [10.503, 5.2627], [10.5363, 5.2172], [10.5015, 5.2042], [10.4067, 5.2636]]]]}}, {"type": "Feature", "properties": {"district": "Menoua", "district_gadm": "Menoua", "region": "Ouest", "hasSeedData": false}, "geometry": {"type": "MultiPolygon", "coordinates": [[[[10.0063, 5.1808], [9.9784, 5.2405], [9.9234, 5.2511], [9.935, 5.2777], [9.8802, 5.2501], [9.8327, 5.2755], [9.8528, 5.3383], [9.9233, 5.3805], [9.9622, 5.5896], [9.9981, 5.5804], [10.0246, 5.6295], [10.0832, 5.6386], [10.1332, 5.5388], [10.193, 5.5028], [10.3287, 5.5307], [10.3271, 5.4214], [10.2556, 5.3954], [10.0817, 5.2143], [10.0063, 5.1808]]]]}}, {"type": "Feature", "properties": {"district": "Mifi", "district_gadm": "Mifi", "region": "Ouest", "hasSeedData": true}, "geometry": {"type": "MultiPolygon", "coordinates": [[[[10.3316, 5.5284], [10.3547, 5.5957], [10.3974, 5.6062], [10.5534, 5.5819], [10.5825, 5.4998], [10.5231, 5.4397], [10.3758, 5.4347], [10.3385, 5.4544], [10.3316, 5.5284]]]]}}, {"type": "Feature", "properties": {"district": "Ndé", "district_gadm": "Ndé", "region": "Ouest", "hasSeedData": false}, "geometry": {"type": "MultiPolygon", "coordinates": [[[[10.7487, 4.9973], [10.5957, 4.8813], [10.4351, 4.9094], [10.4591, 4.9545], [10.4204, 4.9189], [10.4181, 5.0067], [10.3676, 5.0178], [10.3778, 5.1104], [10.3503, 5.143], [10.4436, 5.1996], [10.4391, 5.2447], [10.5015, 5.2042], [10.5363, 5.2172], [10.4972, 5.2545], [10.5134, 5.2697], [10.6662, 5.2498], [10.693, 5.1695], [10.759, 5.1747], [10.7531, 5.1481], [10.8149, 5.0946], [10.853, 5.1131], [10.8236, 5.054], [10.8867, 4.9888], [10.8701, 4.9429], [10.8113, 5.0111], [10.7487, 4.9973]]]]}}, {"type": "Feature", "properties": {"district": "Noun", "district_gadm": "Noun", "region": "Ouest", "hasSeedData": true}, "geometry": {"type": "MultiPolygon", "coordinates": [[[[10.5125, 5.4095], [10.5825, 5.4998], [10.5727, 5.5509], [10.4592, 5.64], [10.505, 5.7051], [10.5558, 5.7042], [10.5635, 5.793], [10.6107, 5.7974], [10.6408, 5.9403], [10.7051, 6.0379], [10.8419, 5.9764], [10.8639, 6.0202], [10.9259, 6.0163], [10.9892, 6.0645], [10.9993, 6.2327], [11.0672, 6.2111], [11.1376, 6.2266], [11.1632, 6.2633], [11.3012, 6.2479], [11.2625, 6.1369], [11.308, 6.0397], [11.2648, 5.9942], [11.2756, 5.9155], [11.2532, 5.9041], [11.2744, 5.8063], [11.3169, 5.7863], [11.202, 5.6703], [11.1866, 5.604], [11.2152, 5.5272], [11.1706, 5.4522], [11.1943, 5.4138], [11.0723, 5.2988], [11.0801, 5.1882], [10.998, 5.1585], [10.9699, 5.0367], [10.9314, 5.0017], [10.9621, 4.9706], [10.9416, 4.9248], [10.8674, 4.9415], [10.8867, 4.9888], [10.8236, 5.054], [10.853, 5.1131], [10.8149, 5.0946], [10.7531, 5.1481], [10.759, 5.1747], [10.693, 5.1695], [10.6662, 5.2498], [10.6177, 5.2425], [10.5655, 5.2828], [10.5613, 5.363], [10.507, 5.3751], [10.5125, 5.4095]]]]}}, {"type": "Feature", "properties": {"district": "Dja-et-Lobo", "district_gadm": "DjaetLobo", "region": "Sud", "hasSeedData": true}, "geometry": {"type": "MultiPolygon", "coordinates": [[[[13.0841, 2.8395], [13.1345, 2.8724], [13.1618, 2.8451], [13.2106, 2.8647], [13.2675, 2.7823], [13.2918, 2.787], [13.2855, 2.8456], [13.3472, 2.7958], [13.3758, 2.8205], [13.4709, 2.7745], [13.5103, 2.7972], [13.504, 2.8349], [13.5338, 2.8216], [13.5326, 2.8535], [13.5581, 2.8439], [13.6305, 2.9045], [13.6801, 2.1717], [13.2932, 2.1713], [13.284, 2.2482], [13.1923, 2.2795], [13.0877, 2.2367], [12.9183, 2.253], [12.8601, 2.2269], [12.8196, 2.2558], [12.7434, 2.2199], [12.5733, 2.268], [12.4539, 2.2525], [12.3072, 2.2822], [12.2459, 2.2484], [12.1234, 2.2888], [11.9343, 2.2782], [11.9789, 2.3992], [12.13, 2.469], [12.2607, 2.6063], [11.8247, 2.7207], [11.6651, 2.995], [11.5945, 3.0356], [11.683, 3.0628], [11.7256, 3.1194], [11.6814, 3.1659], [11.7098, 3.277], [11.7457, 3.2875], [11.7346, 3.3347], [11.7746, 3.3099], [11.849, 3.364], [11.8924, 3.4738], [12.1337, 3.3615], [12.1397, 3.2914], [12.1608, 3.3254], [12.2052, 3.3113], [12.258, 3.4808], [12.4328, 3.6109], [12.4546, 3.6754], [12.4985, 3.6819], [12.5636, 3.5334], [12.5425, 3.3928], [12.7652, 3.1703], [12.7647, 2.9732], [12.7948, 2.9043], [12.9397, 2.8628], [12.9868, 2.8865], [13.0021, 2.8493], [13.0841, 2.8395]]], [[[11.6874, 3.189], [11.6873, 3.1888], [11.6872, 3.1891], [11.6874, 3.189]]]]}}, {"type": "Feature", "properties": {"district": "Mvila", "district_gadm": "Mvila", "region": "Sud", "hasSeedData": true}, "geometry": {"type": "MultiPolygon", "coordinates": [[[[12.1141, 2.6454], [12.2607, 2.6063], [12.2423, 2.5707], [12.13, 2.469], [11.9934, 2.4131], [11.9343, 2.2782], [11.7562, 2.2679], [11.6652, 2.3148], [11.6804, 2.3743], [11.3567, 2.6], [10.9615, 2.7746], [10.8658, 2.7418], [10.7709, 2.7913], [10.7104, 2.7739], [10.7059, 2.8441], [10.612, 2.8939], [10.6275, 2.9289], [10.5944, 2.9608], [10.5754, 3.0766], [10.8329, 3.2136], [10.9029, 3.1357], [11.0606, 3.1851], [11.1844, 3.1527], [11.2188, 3.1045], [11.2705, 3.1355], [11.3315, 3.1133], [11.3551, 3.1435], [11.5649, 3.1375], [11.6872, 3.1891], [11.7256, 3.1194], [11.683, 3.0628], [11.5945, 3.0356], [11.6651, 2.995], [11.8247, 2.7207], [12.1141, 2.6454]]]]}}, {"type": "Feature", "properties": {"district": "Océan", "district_gadm": "Océan", "region": "Sud", "hasSeedData": false}, "geometry": {"type": "MultiPolygon", "coordinates": [[[[10.5679, 2.6451], [10.3911, 2.4655], [10.1661, 2.1507], [9.9337, 2.1822], [9.8461, 2.2446], [9.8219, 2.5675], [9.9052, 2.95], [9.9745, 3.088], [9.903, 3.2631], [10.0391, 3.338], [10.0751, 3.4195], [10.0676, 3.4892], [10.1196, 3.5815], [10.204, 3.5916], [10.2968, 3.3311], [10.7624, 3.4734], [10.8153, 3.4586], [10.8616, 3.3883], [11.0356, 3.413], [11.0997, 3.3316], [11.1135, 3.2482], [11.1747, 3.2101], [11.1735, 3.1541], [11.0319, 3.1848], [10.9029, 3.1357], [10.8329, 3.2136], [10.5754, 3.0766], [10.5944, 2.9608], [10.6275, 2.9289], [10.612, 2.8939], [10.6634, 2.8885], [10.7135, 2.8273], [10.707, 2.761], [10.6692, 2.7554], [10.6546, 2.7073], [10.5936, 2.7081], [10.5679, 2.6451]]]]}}, {"type": "Feature", "properties": {"district": "ValléeduNtem", "district_gadm": "ValléeduNtem", "region": "Sud", "hasSeedData": false}, "geometry": {"type": "MultiPolygon", "coordinates": [[[[11.3736, 2.2951], [11.3532, 2.1713], [10.1883, 2.1724], [10.3911, 2.4655], [10.5507, 2.615], [10.5936, 2.7081], [10.6546, 2.7073], [10.6692, 2.7554], [10.7647, 2.792], [10.8604, 2.7418], [10.9615, 2.7746], [11.3567, 2.6], [11.6804, 2.3743], [11.6491, 2.3027], [11.3736, 2.2951]]]]}}, {"type": "Feature", "properties": {"district": "Fako", "district_gadm": "Fako", "region": "Sud-Ouest", "hasSeedData": true}, "geometry": {"type": "MultiPolygon", "coordinates": [[[[9.2094, 4.0055], [9.1152, 4.0102], [8.9778, 4.0966], [8.9977, 4.1945], [8.9376, 4.2555], [8.9637, 4.2985], [8.9994, 4.2579], [9.1717, 4.2165], [9.2806, 4.4609], [9.3369, 4.4386], [9.3635, 4.378], [9.4798, 4.3784], [9.4145, 4.2208], [9.4668, 4.1898], [9.53, 4.2104], [9.5579, 4.1183], [9.499, 4.0514], [9.457, 4.0596], [9.3557, 3.9074], [9.2941, 3.9593], [9.3222, 3.9999], [9.2431, 3.9421], [9.2054, 3.9606], [9.2094, 4.0055]]]]}}, {"type": "Feature", "properties": {"district": "Kupe-Manenguba", "district_gadm": "KoupéManengouba", "region": "Sud-Ouest", "hasSeedData": true}, "geometry": {"type": "MultiPolygon", "coordinates": [[[[9.7054, 4.7939], [9.6911, 4.7214], [9.6322, 4.6642], [9.6436, 4.6377], [9.5638, 4.6052], [9.5686, 4.6842], [9.5026, 4.7028], [9.5232, 4.806], [9.4637, 4.8282], [9.5045, 4.9563], [9.4248, 5.0064], [9.4091, 5.0998], [9.3396, 5.0922], [9.2734, 5.1412], [9.2752, 5.2194], [9.2017, 5.2539], [9.1862, 5.2996], [9.282, 5.3196], [9.3479, 5.2839], [9.6925, 5.49], [9.7766, 5.4759], [9.8018, 5.374], [9.9112, 5.3716], [9.8241, 5.33], [9.8296, 5.2908], [9.7396, 5.2731], [9.7755, 5.146], [9.8662, 5.0295], [9.7757, 5.0055], [9.7544, 4.941], [9.7861, 4.9165], [9.7745, 4.8738], [9.7054, 4.7939]]]]}}, {"type": "Feature", "properties": {"district": "Lebialem", "district_gadm": "Lebialem", "region": "Sud-Ouest", "hasSeedData": false}, "geometry": {"type": "MultiPolygon", "coordinates": [[[[9.9476, 5.4549], [9.9152, 5.3717], [9.8043, 5.3733], [9.7723, 5.4669], [9.8809, 5.5646], [9.8658, 5.6019], [9.9091, 5.6578], [9.9119, 5.7257], [9.9556, 5.7522], [10.064, 5.7178], [10.1012, 5.6637], [10.0246, 5.6295], [9.9981, 5.5804], [9.9622, 5.5896], [9.9476, 5.4549]]]]}}, {"type": "Feature", "properties": {"district": "Manyu", "district_gadm": "Manyu", "region": "Sud-Ouest", "hasSeedData": false}, "geometry": {"type": "MultiPolygon", "coordinates": [[[[9.6055, 5.9231], [9.591, 5.8822], [9.6337, 5.8875], [9.6799, 5.8353], [9.7255, 5.849], [9.7685, 5.7768], [9.9155, 5.7188], [9.8658, 5.6019], [9.8809, 5.5646], [9.7788, 5.476], [9.6925, 5.49], [9.3463, 5.2836], [9.282, 5.3196], [9.1862, 5.2996], [9.1422, 5.348], [9.1464, 5.3949], [8.9884, 5.431], [8.9407, 5.3002], [8.8357, 5.3438], [8.831, 5.43], [8.9207, 5.5722], [8.8366, 5.6796], [8.8834, 5.7775], [8.84, 5.8263], [9.1675, 6.1307], [9.2657, 6.1842], [9.3434, 6.3511], [9.4313, 6.3172], [9.4645, 6.4544], [9.528, 6.4434], [9.588, 6.4752], [9.5997, 6.5307], [9.7063, 6.5156], [9.7436, 6.4842], [9.7365, 6.4311], [9.8086, 6.2527], [9.7654, 6.1255], [9.6127, 6.0232], [9.6389, 5.9676], [9.6055, 5.9231]]]]}}, {"type": "Feature", "properties": {"district": "Meme", "district_gadm": "Meme", "region": "Sud-Ouest", "hasSeedData": false}, "geometry": {"type": "MultiPolygon", "coordinates": [[[[9.5244, 4.5462], [9.4873, 4.4718], [9.5149, 4.4024], [9.4827, 4.3794], [9.3635, 4.378], [9.3369, 4.4386], [9.2653, 4.455], [9.1717, 4.2165], [8.9994, 4.2579], [8.9637, 4.2985], [8.9912, 4.359], [9.1148, 4.4337], [9.1253, 4.509], [9.0854, 4.5484], [9.2415, 4.6755], [9.2168, 4.7829], [9.2811, 4.9019], [9.2516, 4.9286], [9.2735, 4.9691], [9.2469, 5.0144], [9.3305, 5.1072], [9.4101, 5.099], [9.3954, 5.0624], [9.4248, 5.0064], [9.5045, 4.9563], [9.4637, 4.8282], [9.5232, 4.806], [9.503, 4.7013], [9.5703, 4.6792], [9.5244, 4.5462]]]]}}, {"type": "Feature", "properties": {"district": "Ndian", "district_gadm": "Ndian", "region": "Sud-Ouest", "hasSeedData": false}, "geometry": {"type": "MultiPolygon", "coordinates": [[[[8.7143, 4.4996], [8.6724, 4.474], [8.5578, 4.4844], [8.5687, 4.5207], [8.506, 4.5059], [8.4996, 4.5565], [8.5289, 4.5634], [8.5003, 4.6698], [8.5402, 4.7023], [8.5388, 4.7923], [8.6287, 4.8203], [8.6061, 4.8805], [8.7945, 5.1346], [8.8357, 5.3438], [8.9407, 5.3002], [8.9849, 5.4312], [9.1464, 5.3949], [9.1422, 5.348], [9.2017, 5.2539], [9.2752, 5.2194], [9.2734, 5.1412], [9.3305, 5.1072], [9.2469, 5.0144], [9.2735, 4.9691], [9.2516, 4.9286], [9.2811, 4.9019], [9.2168, 4.7829], [9.2415, 4.6755], [9.0833, 4.5454], [9.1253, 4.509], [9.1148, 4.4337], [8.9912, 4.359], [8.9376, 4.2555], [8.8881, 4.388], [8.9052, 4.5001], [8.8389, 4.5504], [8.7143, 4.4996]]]]}}]}